ISS (ZARYA)             
1 25544U 98067A   26167.47994788  .00006936  00000+0  13276-3 0  9993
2 25544  51.6336 303.5935 0004795 192.9278 167.1588 15.49257994571641
OSCAR 7 (AO-7)          
1 07530U 74089B   26167.59648679 -.00000041  00000+0  32841-4 0  9996
2 07530 101.9900 180.8370 0012565 131.2217 344.7695 12.53698125360447
PHASE 3B (AO-10)        
1 14129U 83058B   26167.39836832  .00000184  00000+0  00000+0 0  9996
2 14129  25.9115 219.6954 6011122 115.4511 316.8847  2.05868576295470
UOSAT 2 (UO-11)         
1 14781U 84021B   26167.61729315  .00000929  00000+0  10014-3 0  9990
2 14781  97.8057 133.1983 0007597 174.2349 185.8958 14.90781981257045
LUSAT (LO-19)           
1 20442U 90005G   26167.55404472  .00000088  00000+0  47981-4 0  9997
2 20442  98.8851 189.3422 0011081 203.0347 157.0341 14.34123035902303
EYESAT A (AO-27)        
1 22825U 93061C   26167.44048465  .00000089  00000+0  50777-4 0  9991
2 22825  98.6881 234.8543 0009540 101.6218 258.6036 14.30942107706898
ITAMSAT (IO-26)         
1 22826U 93061D   26167.42011983  .00000083  00000+0  48309-4 0  9997
2 22826  98.6828 234.7514 0010075  86.9946 273.2390 14.31369008707201
RADIO ROSTO (RS15)      
1 23439U 94085A   26167.58384648 -.00000050  00000+0 -20016-3 0  9993
2 23439  64.8179 304.1920 0155931   3.9882 356.2246 11.27583477295831
JAS-2 (FO-29)           
1 24278U 96046B   26167.57177359  .00000008  00000+0  41027-4 0  9999
2 24278  98.5239  16.5282 0350891  98.0253 266.0850 13.53274364473085
TECHSAT 1B (GO-32)      
1 25397U 98043D   26167.57268889  .00000031  00000+0  33417-4 0  9990
2 25397  99.0067 160.3158 0001025 164.2702 195.8508 14.24428266451244
PCSAT (NO-44)           
1 26931U 01043C   26167.60055177  .00000075  00000+0  58858-4 0  9991
2 26931  67.0506 245.7892 0006081 264.6522  95.3886 14.31955906290368
SAUDISAT 1C (SO-50)     
1 27607U 02058C   26167.61583827  .00000824  00000+0  11462-3 0  9999
2 27607  64.5510 130.7531 0075274 262.5800  96.6748 14.83045885264371
CUTE-1 (CO-55)          
1 27844U 03031E   26167.26444772  .00000236  00000+0  12107-3 0  9994
2 27844  98.6736 175.8349 0009468 180.6624 179.4544 14.24335232191540
CUBESAT XI-IV (CO-57)   
1 27848U 03031J   26167.53357567  .00000197  00000+0  10539-3 0  9996
2 27848  98.6766 175.8138 0008978 199.0194 161.0650 14.23620520191286
MOZHAETS 4 (RS22)       
1 27939U 03042A   26167.67041993  .00000358  00000+0  63409-4 0  9991
2 27939  98.3461 352.0145 0009927 271.6126 157.8762 14.73465274215473
CUBESAT XI-V            
1 28895U 05043F   26167.38340975  .00001200  00000+0  19649-3 0  9999
2 28895  98.2985 322.9884 0013585 203.3717 156.6874 14.72629782101632
CUTE-1.7+APD II (CO-65) 
1 32785U 08021C   26167.58586699  .00003637  00000+0  23127-3 0  9990
2 32785  97.8272 148.9918 0009841  40.9477 319.2489 15.09446364985106
SEEDS II (CO-66)        
1 32791U 08021J   26166.96044239  .00015094  00000+0  47997-3 0  9998
2 32791  97.7511 164.7995 0001225   8.5431 351.5831 15.32715926987108
YUBILEINY (RS30)        
1 32953U 08025A   26167.61559416  .00000065  00000+0  39567-3 0  9999
2 32953  82.5037 355.7960 0018888 315.2446  44.7110 12.43179579819623
KKS-1 (KISEKI)          
1 33499U 09002H   26167.51447025  .00001108  00000+0  14278-3 0  9993
2 33499  98.1190  89.9461 0006565 298.5244  61.5308 14.83122564936097
SWISSCUBE               
1 35932U 09051B   26167.55290445  .00000809  00000+0  16935-3 0  9996
2 35932  98.4037  75.4301 0005920 205.2603 154.8309 14.62480577889064
BEESAT-1                
1 35933U 09051C   26167.28819711  .00000696  00000+0  14946-3 0  9994
2 35933  98.3965  74.7982 0004173 220.4264 139.6627 14.61719271889050
ITUPSAT1                
1 35935U 09051E   26167.55235184  .00000625  00000+0  13915-3 0  9999
2 35935  98.4049  74.2590 0006236 236.3004 123.7602 14.60439879888649
XIWANG-1 (HOPE-1)       
1 36122U 09072B   26167.63589017 -.00000399  00000+0 -92976-3 0  9991
2 36122 100.4026 121.4770 0006865 233.1096 126.9388 13.16437059792936
O/OREOS (USA 219)       
1 37224U 10062C   26167.19160790  .00001939  00000+0  18866-3 0  9995
2 37224  71.9714  82.5947 0012532  65.2237 295.0236 14.93741110116491
JUGNU                   
1 37839U 11058B   26167.11854749  .00000400  00000+0  69482-4 0  9992
2 37839  19.9617 314.9218 0018636  64.4642 109.1077 14.13776503758870
SRMSAT                  
1 37841U 11058D   26167.39100053  .00000354  00000+0  48037-4 0  9998
2 37841  19.9721  64.2860 0011804 194.8507 321.4366 14.11575402757709
STRAND-1                
1 39090U 13009E   26167.56865568  .00000207  00000+0  84083-4 0  9990
2 39090  98.3921 347.8182 0007698 227.4338 132.6200 14.37162942696977
ZACUBE-1 (TSHEPISOSAT)  
1 39417U 13066B   26167.60742097  .00002510  00000+0  19730-3 0  9997
2 39417  97.8081 129.9413 0040740 249.6974 109.9870 15.01186029680645
GOMX-1                  
1 39430U 13066Q   26167.50503279  .00001551  00000+0  23738-3 0  9995
2 39430  97.6477   8.0110 0130180  79.7035 281.8819 14.69458240669815
